NORAD_CAT_ID,OBJECT_NAME,OBJECT_TYPE,EPOCH,MEAN_MOTION,ECCENTRICITY,INCLINATION,RA_OF_ASC_NODE,ARG_OF_PERICENTER,MEAN_ANOMALY,BSTAR,MEAN_MOTION_DOT,MEAN_MOTION_DDOT,TLE_LINE0,TLE_LINE1,TLE_LINE2,SEMIMAJOR_AXIS,PERIOD,APOGEE,PERIGEE,DECAYED
51983.0,STARLINK-3655,PAYLOAD,2024-01-17 01:14:04,15.0884079,0.0001447,53.2171,312.5202,98.9757,261.1399,-3.8664e-05,-9.03e-06,0.0,0 STARLINK-3655,1 51983U 22025AD  24017.05144020 -.00000903  00000-0 -38664-4 0  9992,2 51983  53.2171 312.5202 0001447  98.9757 261.1399 15.08840790102908,6917.878,95.438,540.744,538.742,0.0
51983.0,STARLINK-3655,PAYLOAD,2024-01-18 04:15:37,15.0884335,0.0001458,53.2173,307.4653,93.3922,266.7237,0.00015151,2.124e-05,0.0,0 STARLINK-3655,1 51983U 22025AD  24018.17752280  .00002124  00000-0  15151-3 0  9999,2 51983  53.2173 307.4653 0001458  93.3922 266.7237 15.08843350104198,6917.87,95.437,540.744,538.727,0.0
51983.0,STARLINK-3655,PAYLOAD,2024-01-19 04:06:24,15.08856468,0.0001427,53.2172,303.0056,101.9059,258.2093,0.0003663,5.549e-05,0.0,0 STARLINK-3655,1 51983U 22025AD  24019.17111819  .00005549  00000-0  36630-3 0  9996,2 51983  53.2172 303.0056 0001427 101.9059 258.2093 15.08856468103222,6917.83,95.437,540.682,538.708,0.0
51983.0,STARLINK-3655,PAYLOAD,2024-01-19 23:11:02,15.0884219,0.0001992,53.2179,299.4317,121.6607,238.458,2.8715e-05,1.69e-06,0.0,0 STARLINK-3655,1 51983U 22025AD  24019.96600303  .00000169  00000-0  28715-4 0  9993,2 51983  53.2179 299.4317 0001992 121.6607 238.4580 15.08842190103343,6917.874,95.437,541.117,538.361,0.0
51983.0,STARLINK-3655,PAYLOAD,2024-01-20 00:46:26,15.08841181,0.0001715,53.2186,299.1368,92.2312,267.8876,5.1282e-05,5.28e-06,0.0,0 STARLINK-3655,1 51983U 22025AD  24020.03224638  .00000528  00000-0  51282-4 0  9990,2 51983  53.2186 299.1368 0001715  92.2312 267.8876 15.08841181104471,6917.877,95.437,540.928,538.555,0.0
51983.0,STARLINK-3655,PAYLOAD,2024-01-20 23:01:50,15.08842452,0.0001652,53.2175,294.9778,86.1297,273.9884,-1.3888e-05,-5.09e-06,0.0,0 STARLINK-3655,1 51983U 22025AD  24020.95960886 -.00000509  00000-0 -13888-4 0  9994,2 51983  53.2175 294.9778 0001652  86.1297 273.9884 15.08842452103491,6917.873,95.437,540.881,538.595,0.0
51983.0,STARLINK-3655,PAYLOAD,2024-01-21 00:37:13,15.08843037,0.0001671,53.2175,294.6803,85.6824,274.4359,1.7215e-06,-2.61e-06,0.0,0 STARLINK-3655,1 51983U 22025AD  24021.02584866 -.00000261  00000-0  17215-5 0  9996,2 51983  53.2175 294.6803 0001671  85.6824 274.4359 15.08843037103503,6917.871,95.437,540.892,538.58,0.0
51983.0,STARLINK-3655,PAYLOAD,2024-01-21 18:06:28,15.08818305,0.0001871,53.2178,291.4089,93.1079,267.0127,0.00086722,0.00013533,0.0,0 STARLINK-3655,1 51983U 22025AD  24021.75449864  .00013533  00000-0  86722-3 0  9996,2 51983  53.2178 291.4089 0001871  93.1079 267.0127 15.08818305104732,6917.947,95.439,541.106,538.517,0.0
51983.0,STARLINK-3655,PAYLOAD,2024-01-21 22:52:37,15.08840449,0.0001643,53.2179,290.5174,98.733,261.3848,0.00037344,5.66e-05,0.0,0 STARLINK-3655,1 51983U 22025AD  24021.95320929  .00005660  00000-0  37344-3 0  9996,2 51983  53.2179 290.5174 0001643  98.7330 261.3848 15.08840449103646,6917.879,95.438,540.881,538.607,0.0
51983.0,STARLINK-3655,PAYLOAD,2024-01-22 00:28:00,15.08849305,0.0001716,53.2183,290.2204,95.4218,264.697,0.00018655,2.683e-05,0.0,0 STARLINK-3655,1 51983U 22025AD  24022.01944531  .00002683  00000-0  18655-3 0  9991,2 51983  53.2183 290.2204 0001716  95.4218 264.6970 15.08849305104779,6917.852,95.437,540.904,538.53,0.0
51983.0,STARLINK-3655,PAYLOAD,2024-01-22 22:43:24,15.08838624,0.0001382,53.2183,286.0582,95.7648,264.3501,2.8076e-05,1.59e-06,0.0,0 STARLINK-3655,1 51983U 22025AD  24022.94681060  .00000159  00000-0  28076-4 0  9993,2 51983  53.2183 286.0582 0001382  95.7648 264.3501 15.08838624103790,6917.885,95.438,540.706,538.794,0.0
51983.0,STARLINK-3655,PAYLOAD,2024-01-23 00:18:47,15.0883906,0.0001491,53.2179,285.7577,96.9125,263.2037,2.852e-05,1.66e-06,0.0,0 STARLINK-3655,1 51983U 22025AD  24023.01305044  .00000166  00000-0  28520-4 0  9999,2 51983  53.2179 285.7577 0001491  96.9125 263.2037 15.08839060104922,6917.883,95.438,540.78,538.717,0.0
51983.0,STARLINK-3655,PAYLOAD,2024-01-23 22:34:11,15.08846895,0.0001354,53.217,281.5936,98.9807,261.1339,7.2727e-05,8.7e-06,0.0,0 STARLINK-3655,1 51983U 22025AD  24023.94040564  .00000870  00000-0  72727-4 0  9994,2 51983  53.2170 281.5936 0001354  98.9807 261.1339 15.08846895103940,6917.859,95.437,540.661,538.788,0.0
51983.0,STARLINK-3655,PAYLOAD,2024-01-24 22:24:58,15.08836789,0.0001195,53.2162,277.1326,94.9787,265.1342,2.303e-05,7.9e-07,0.0,0 STARLINK-3655,1 51983U 22025AD  24024.93401193  .00000079  00000-0  23030-4 0  9997,2 51983  53.2162 277.1326 0001195  94.9787 265.1342 15.08836789104097,6917.89,95.438,540.582,538.929,0.0
51983.0,STARLINK-3655,PAYLOAD,2024-01-25 22:15:46,15.08836979,0.0001146,53.2157,272.6656,91.8352,268.2771,9.1432e-05,1.168e-05,0.0,0 STARLINK-3655,1 51983U 22025AD  24025.92761659  .00001168  00000-0  91432-4 0  9994,2 51983  53.2157 272.6656 0001146  91.8352 268.2771 15.08836979104245,6917.89,95.438,540.547,538.962,0.0
51983.0,STARLINK-3655,PAYLOAD,2024-01-25 23:51:09,15.08818794,0.0001311,53.2163,272.3734,93.8904,266.2238,0.00042646,6.502e-05,0.0,0 STARLINK-3655,1 51983U 22025AD  24025.99386088  .00006502  00000-0  42646-3 0  9999,2 51983  53.2163 272.3734 0001311  93.8904 266.2238 15.08818794105371,6917.945,95.439,540.717,538.903,0.0
51983.0,STARLINK-3655,PAYLOAD,2024-01-26 23:41:55,15.08845811,0.0001229,53.2167,267.9166,88.4505,271.6628,0.00023158,3.4e-05,0.0,0 STARLINK-3655,1 51983U 22025AD  24026.98745069  .00003400  00000-0  23158-3 0  9998,2 51983  53.2167 267.9166 0001229  88.4505 271.6628 15.08845811105529,6917.863,95.437,540.578,538.877,0.0
51983.0,STARLINK-3655,PAYLOAD,2024-01-27 20:21:56,15.08844862,0.0001403,53.2158,264.0529,77.8701,282.2449,9.4754e-05,1.221e-05,0.0,0 STARLINK-3655,1 51983U 22025AD  24027.84857367  .00001221  00000-0  94754-4 0  9999,2 51983  53.2158 264.0529 0001403  77.8701 282.2449 15.08844862105652,6917.866,95.437,540.701,538.76,0.0
51983.0,STARLINK-3655,PAYLOAD,2024-01-27 21:57:19,15.08845601,0.0001418,53.2168,263.7545,77.0374,283.0777,9.4517e-05,1.217e-05,0.0,0 STARLINK-3655,1 51983U 22025AD  24027.91481340  .00001217  00000-0  94517-4 0  9993,2 51983  53.2168 263.7545 0001418  77.0374 283.0777 15.08845601104543,6917.863,95.437,540.709,538.747,0.0
51983.0,STARLINK-3655,PAYLOAD,2024-01-28 01:08:05,15.08847053,0.0001513,53.2174,263.1546,73.2879,286.828,9.911e-05,1.29e-05,0.0,0 STARLINK-3655,1 51983U 22025AD  24028.04729163  .00001290  00000-0  99110-4 0  9991,2 51983  53.2174 263.1546 0001513  73.2879 286.8280 15.08847053104564,6917.859,95.437,540.771,538.677,0.0
51983.0,STARLINK-3655,PAYLOAD,2024-01-28 20:12:43,15.08844115,0.0001476,53.2176,259.5819,76.8722,283.2435,-3.8854e-05,-9.06e-06,0.0,0 STARLINK-3655,1 51983U 22025AD  24028.84217587 -.00000906  00000-0 -38854-4 0  9994,2 51983  53.2176 259.5819 0001476  76.8722 283.2435 15.08844115105809,6917.868,95.437,540.754,538.712,0.0
51983.0,STARLINK-3655,PAYLOAD,2024-01-28 21:48:07,15.08830223,0.0001432,53.2175,259.2847,81.1245,278.9909,0.000139,1.924e-05,0.0,0 STARLINK-3655,1 51983U 22025AD  24028.90841893  .00001924  00000-0  13900-3 0  9997,2 51983  53.2175 259.2847 0001432  81.1245 278.9909 15.08830223104695,6917.91,95.438,540.766,538.785,0.0
51983.0,STARLINK-3655,PAYLOAD,2024-01-29 00:58:53,15.08844204,0.0001458,53.2172,258.6926,84.9997,275.1162,-0.00010134,-1.901e-05,0.0,0 STARLINK-3655,1 51983U 22025AD  24029.04089637 -.00001901  00000-0 -10134-3 0  9996,2 51983  53.2172 258.6926 0001458  84.9997 275.1162 15.08844204104713,6917.868,95.437,540.741,538.724,0.0
51983.0,STARLINK-3655,PAYLOAD,2024-01-30 00:49:39,15.08845594,0.0001549,53.2167,254.233,113.1719,246.9437,0.00010616,1.402e-05,0.0,0 STARLINK-3655,1 51983U 22025AD  24030.03448735  .00001402  00000-0  10616-3 0  9994,2 51983  53.2167 254.2330 0001549 113.1719 246.9437 15.08845594105980,6917.863,95.437,540.8,538.657,0.0
51983.0,STARLINK-3655,PAYLOAD,2024-01-30 19:54:18,15.08837369,0.0001322,53.2161,250.6678,83.8508,276.2635,2.0761e-05,4.3e-07,0.0,0 STARLINK-3655,1 51983U 22025AD  24030.82937708  .00000043  00000-0  20761-4 0  9997,2 51983  53.2161 250.6678 0001322  83.8508 276.2635 15.08837369106109,6917.888,95.438,540.668,538.839,0.0
51983.0,STARLINK-3655,PAYLOAD,2024-01-30 21:29:41,15.0883789,0.0001405,53.2165,250.3697,90.7106,269.4047,3.1116e-05,2.07e-06,0.0,0 STARLINK-3655,1 51983U 22025AD  24030.89561592  .00000207  00000-0  31116-4 0  9996,2 51983  53.2165 250.3697 0001405  90.7106 269.4047 15.08837890104999,6917.887,95.438,540.724,538.78,0.0
51983.0,STARLINK-3655,PAYLOAD,2024-01-31 14:58:55,15.08832124,0.0001526,53.2171,247.0972,101.476,258.6403,3.7369e-05,3.07e-06,0.0,0 STARLINK-3655,1 51983U 22025AD  24031.62425910  .00000307  00000-0  37369-4 0  9998,2 51983  53.2171 247.0972 0001526 101.4760 258.6403 15.08832124105100,6917.904,95.438,540.825,538.714,0.0
51983.0,STARLINK-3655,PAYLOAD,2024-02-01 00:31:15,15.08830238,0.0001511,53.2169,245.3136,103.5277,256.5884,2.1277e-05,5.1e-07,0.0,0 STARLINK-3655,1 51983U 22025AD  24032.02170267  .00000051  00000-0  21277-4 0  9992,2 51983  53.2169 245.3136 0001511 103.5277 256.5884 15.08830238106284,6917.91,95.438,540.821,538.73,0.0
51983.0,STARLINK-3655,PAYLOAD,2024-02-01 18:00:29,15.08836029,0.000151,53.2172,242.0434,104.7736,255.3423,5.8031e-05,6.36e-06,0.0,0 STARLINK-3655,1 51983U 22025AD  24032.75034096  .00000636  00000-0  58031-4 0  9998,2 51983  53.2172 242.0434 0001510 104.7736 255.3423 15.08836029105273,6917.893,95.438,540.802,538.713,0.0
51983.0,STARLINK-3655,PAYLOAD,2024-02-02 00:22:02,15.08836128,0.0001505,53.2172,240.8542,103.7416,256.3744,5.4364e-05,5.77e-06,0.0,0 STARLINK-3655,1 51983U 22025AD  24033.01530191  .00000577  00000-0  54364-4 0  9994,2 51983  53.2172 240.8542 0001505 103.7416 256.3744 15.08836128106433,6917.892,95.438,540.798,538.716,0.0
